$$SOE
2461281.500000000, A.D. 2026-Aug-29 00:00:00.0000, -3.726587469946494E+09, -5.184371542760250E+09, 5.725115343474867E+08,
2461288.500000000, A.D. 2026-Sep-05 00:00:00.0000, -3.724437501475039E+09, -5.186186215893792E+09, 5.729942350813708E+08,
2461295.500000000, A.D. 2026-Sep-12 00:00:00.0000, -3.722286817412834E+09, -5.187999981612431E+09, 5.734768299261348E+08,
2461302.500000000, A.D. 2026-Sep-19 00:00:00.0000, -3.720135419797950E+09, -5.189812840679003E+09, 5.739593189585950E+08,
2461309.500000000, A.D. 2026-Sep-26 00:00:00.0000, -3.717983310290060E+09, -5.191624794438795E+09, 5.744417022075264E+08,
2461316.500000000, A.D. 2026-Oct-03 00:00:00.0000, -3.715830490100194E+09, -5.193435844584204E+09, 5.749239796633511E+08,
2461323.500000000, A.D. 2026-Oct-10 00:00:00.0000, -3.713676960007086E+09, -5.195245993012039E+09, 5.754061512872555E+08,
2461330.500000000, A.D. 2026-Oct-17 00:00:00.0000, -3.711522720408453E+09, -5.197055241754400E+09, 5.758882170166452E+08,
2461337.500000000, A.D. 2026-Oct-24 00:00:00.0000, -3.709367771382844E+09, -5.198863593005630E+09, 5.763701767629602E+08,
2461344.500000000, A.D. 2026-Oct-31 00:00:00.0000, -3.707212112663262E+09, -5.200671049311994E+09, 5.768520303874395E+08,
2461351.500000000, A.D. 2026-Nov-07 00:00:00.0000, -3.705055743183524E+09, -5.202477613849985E+09, 5.773337776299844E+08,
2461358.500000000, A.D. 2026-Nov-14 00:00:00.0000, -3.702898659996454E+09, -5.204283289905863E+09, 5.778154180453944E+08,
2461365.500000000, A.D. 2026-Nov-21 00:00:00.0000, -3.700740858375677E+09, -5.206088078874509E+09, 5.782969511691227E+08,
2461372.500000000, A.D. 2026-Nov-28 00:00:00.0000, -3.698582334099114E+09, -5.207891979785680E+09, 5.787783767585084E+08,
2461379.500000000, A.D. 2026-Dec-05 00:00:00.0000, -3.696423084294618E+09, -5.209694991014006E+09, 5.792596947241805E+08,
2461386.500000000, A.D. 2026-Dec-12 00:00:00.0000, -3.694263106682840E+09, -5.211497111061720E+09, 5.797409049910088E+08,
2461393.500000000, A.D. 2026-Dec-19 00:00:00.0000, -3.692102399104602E+09, -5.213298338407706E+09, 5.802220074625099E+08,
2461400.500000000, A.D. 2026-Dec-26 00:00:00.0000, -3.689940959475174E+09, -5.215098671290956E+09, 5.807030020310264E+08,
2461407.500000000, A.D. 2027-Jan-02 00:00:00.0000, -3.687778785889917E+09, -5.216898107619434E+09, 5.811838885929670E+08,
2461414.500000000, A.D. 2027-Jan-09 00:00:00.0000, -3.685615876764924E+09, -5.218696644984394E+09, 5.816646670601463E+08,
2461421.500000000, A.D. 2027-Jan-16 00:00:00.0000, -3.683452230978405E+09, -5.220494280771516E+09, 5.821453373647823E+08,
2461428.500000000, A.D. 2027-Jan-23 00:00:00.0000, -3.681287847968209E+09, -5.222291012408709E+09, 5.826258994507117E+08,
2461435.500000000, A.D. 2027-Jan-30 00:00:00.0000, -3.679122727599379E+09, -5.224086837798546E+09, 5.831063532296691E+08,
2461442.500000000, A.D. 2027-Feb-06 00:00:00.0000, -3.676956869378621E+09, -5.225881755595470E+09, 5.835866984913776E+08,
2461449.500000000, A.D. 2027-Feb-13 00:00:00.0000, -3.674790271477597E+09, -5.227675764108202E+09, 5.840669349092064E+08,
2461456.500000000, A.D. 2027-Feb-20 00:00:00.0000, -3.672622931930212E+09, -5.229468859618464E+09, 5.845470622933824E+08,
2461463.500000000, A.D. 2027-Feb-27 00:00:00.0000, -3.670454850608944E+09, -5.231261037329725E+09, 5.850270807009034E+08,
2461470.500000000, A.D. 2027-Mar-06 00:00:00.0000, -3.668286028962691E+09, -5.233052293023429E+09, 5.855069902822583E+08,
2461477.500000000, A.D. 2027-Mar-13 00:00:00.0000, -3.666116469116726E+09, -5.234842623373216E+09, 5.859867911790075E+08,
2461484.500000000, A.D. 2027-Mar-20 00:00:00.0000, -3.663946173464268E+09, -5.236632025751823E+09, 5.864664835074322E+08,
2461491.500000000, A.D. 2027-Mar-27 00:00:00.0000, -3.661775144547751E+09, -5.238420498079585E+09, 5.869460673647144E+08,
2461498.500000000, A.D. 2027-Apr-03 00:00:00.0000, -3.659603385026861E+09, -5.240208038762243E+09, 5.874255428350310E+08,
2461505.500000000, A.D. 2027-Apr-10 00:00:00.0000, -3.657430897672106E+09, -5.241994646695068E+09, 5.879049099917607E+08,
2461512.500000000, A.D. 2027-Apr-17 00:00:00.0000, -3.655257685361867E+09, -5.243780321347534E+09, 5.883841688925464E+08,
2461519.500000000, A.D. 2027-Apr-24 00:00:00.0000, -3.653083751003675E+09, -5.245565062990768E+09, 5.888633195548699E+08,
2461526.500000000, A.D. 2027-May-01 00:00:00.0000, -3.650909097080124E+09, -5.247348873039906E+09, 5.893423618868961E+08,
2461533.500000000, A.D. 2027-May-08 00:00:00.0000, -3.648733724511990E+09, -5.249131753763009E+09, 5.898212956065845E+08,
2461540.500000000, A.D. 2027-May-15 00:00:00.0000, -3.646557632335451E+09, -5.250913706403083E+09, 5.903001203642881E+08,
2461547.500000000, A.D. 2027-May-22 00:00:00.0000, -3.644380819757269E+09, -5.252694730304792E+09, 5.907788360005040E+08,
2461554.500000000, A.D. 2027-May-29 00:00:00.0000, -3.642203287231986E+09, -5.254474824514166E+09, 5.912574425110729E+08,
2461561.500000000, A.D. 2027-Jun-05 00:00:00.0000, -3.640025035676333E+09, -5.256253988719487E+09, 5.917359398946798E+08,
2461568.500000000, A.D. 2027-Jun-12 00:00:00.0000, -3.637846065828341E+09, -5.258032223101640E+09, 5.922143281022031E+08,
2461575.500000000, A.D. 2027-Jun-19 00:00:00.0000, -3.635666378082202E+09, -5.259809528028853E+09, 5.926926070419805E+08,
2461582.500000000, A.D. 2027-Jun-26 00:00:00.0000, -3.633485972519459E+09, -5.261585903857212E+09, 5.931707765942090E+08,
2461589.500000000, A.D. 2027-Jul-03 00:00:00.0000, -3.631304849004375E+09, -5.263361350828616E+09, 5.936488366232417E+08,
2461596.500000000, A.D. 2027-Jul-10 00:00:00.0000, -3.629123007306680E+09, -5.265135869057459E+09, 5.941267869853549E+08,
2461603.500000000, A.D. 2027-Jul-17 00:00:00.0000, -3.626940447215302E+09, -5.266909458644888E+09, 5.946046275257282E+08,
2461610.500000000, A.D. 2027-Jul-24 00:00:00.0000, -3.624757168486691E+09, -5.268682119983477E+09, 5.950823580454061E+08,
2461617.500000000, A.D. 2027-Jul-31 00:00:00.0000, -3.622573170216280E+09, -5.270453854016757E+09, 5.955599782199757E+08,
2461624.500000000, A.D. 2027-Aug-07 00:00:00.0000, -3.620388449833832E+09, -5.272224661301896E+09, 5.960374875826735E+08,
2461631.500000000, A.D. 2027-Aug-14 00:00:00.0000, -3.618203004023761E+09, -5.273994540128862E+09, 5.965148857623897E+08,
2461638.500000000, A.D. 2027-Aug-21 00:00:00.0000, -3.616016830952232E+09, -5.275763487060207E+09, 5.969921726449604E+08,
2461645.500000000, A.D. 2027-Aug-28 00:00:00.0000, -3.613829930369968E+09, -5.277531498688286E+09, 5.974693482413735E+08,
2461652.500000000, A.D. 2027-Sep-04 00:00:00.0000, -3.611642302771916E+09, -5.279298572107601E+09, 5.979464125755942E+08,
2461659.500000000, A.D. 2027-Sep-11 00:00:00.0000, -3.609453949009085E+09, -5.281064704763554E+09, 5.984233656657255E+08,
2461666.500000000, A.D. 2027-Sep-18 00:00:00.0000, -3.607264870219355E+09, -5.282829894327717E+09, 5.989002075329373E+08,
2461673.500000000, A.D. 2027-Sep-25 00:00:00.0000, -3.605075067848440E+09, -5.284594138676977E+09, 5.993769382105303E+08,
2461680.500000000, A.D. 2027-Oct-02 00:00:00.0000, -3.602884543685873E+09, -5.286357435948699E+09, 5.998535577482693E+08,
2461687.500000000, A.D. 2027-Oct-09 00:00:00.0000, -3.600693299893564E+09, -5.288119784675983E+09, 6.003300662092867E+08,
2461694.500000000, A.D. 2027-Oct-16 00:00:00.0000, -3.598501338963615E+09, -5.289881184057490E+09, 6.008064636490569E+08,
2461701.500000000, A.D. 2027-Oct-23 00:00:00.0000, -3.596308663345411E+09, -5.291641634367126E+09, 6.012827500519490E+08,
2461708.500000000, A.D. 2027-Oct-30 00:00:00.0000, -3.594115274367127E+09, -5.293401136892912E+09, 6.017589252407346E+08,
2461715.500000000, A.D. 2027-Nov-06 00:00:00.0000, -3.591921171614975E+09, -5.295159692276609E+09, 6.022349889578431E+08,
2461722.500000000, A.D. 2027-Nov-13 00:00:00.0000, -3.589726354755558E+09, -5.296917299330105E+09, 6.027109411307204E+08,
2461729.500000000, A.D. 2027-Nov-20 00:00:00.0000, -3.587530824899399E+09, -5.298673956514208E+09, 6.031867818764899E+08,
2461736.500000000, A.D. 2027-Nov-27 00:00:00.0000, -3.585334583888066E+09, -5.300429663115355E+09, 6.036625113398597E+08,
2461743.500000000, A.D. 2027-Dec-04 00:00:00.0000, -3.583137633528410E+09, -5.302184419206142E+09, 6.041381296245811E+08,
2461750.500000000, A.D. 2027-Dec-11 00:00:00.0000, -3.580939975324494E+09, -5.303938225353605E+09, 6.046136367902248E+08,
2461757.500000000, A.D. 2027-Dec-18 00:00:00.0000, -3.578741610432242E+09, -5.305691082414265E+09, 6.050890328614390E+08,
2461764.500000000, A.D. 2027-Dec-25 00:00:00.0000, -3.576542539684804E+09, -5.307442991417956E+09, 6.055643178356459E+08,
2461771.500000000, A.D. 2028-Jan-01 00:00:00.0000, -3.574342763647227E+09, -5.309193953525794E+09, 6.060394916866734E+08,
$$EOE